{
  "type": "FeatureCollection",
  "features": [
    {
      "type": "Feature",
      "properties": {
        "norad_id": 66516,
        "name": "STARLINK-35924",
        "group": "last-30-days",
        "lat": -6.412090487359925,
        "lon": 96.93949792772395,
        "alt_km": 346.250235109811,
        "timestamp": "2025-12-04T07:39:34.999442+00:00",
        "meta_object_name": "STARLINK-35924",
        "meta_object_id": "2025-265A",
        "meta_epoch": "2025-12-03T22:00:03.000096",
        "meta_mean_motion": 15.75429389,
        "meta_eccentricity": 0.00015917,
        "meta_inclination": 42.9996,
        "meta_ra_of_asc_node": 106.3085,
        "meta_arg_of_pericenter": 268.5253,
        "meta_mean_anomaly": 317.4361,
        "meta_ephemeris_type": 0,
        "meta_classification_type": "U",
        "meta_norad_cat_id": 66516,
        "meta_element_set_no": 999,
        "meta_rev_at_epoch": 355,
        "meta_bstar": -0.0072522181,
        "meta_mean_motion_dot": -0.01023537,
        "meta_mean_motion_ddot": 0,
        "tle_line1": "1 66516U 25265A   25337.91670139 -.01023537  00000+0 -72522-2 0  9992",
        "tle_line2": "2 66516  42.9996 106.3085 0001591 268.5253 317.4361 15.75429389  3556"
      },
      "geometry": {
        "type": "Point",
        "coordinates": [
          96.93949792772395,
          -6.412090487359925
        ]
      }
    },
    {
      "type": "Feature",
      "properties": {
        "norad_id": 66517,
        "name": "STARLINK-35937",
        "group": "last-30-days",
        "lat": -5.133190803129435,
        "lon": 98.33021280616163,
        "alt_km": 346.11733471618845,
        "timestamp": "2025-12-04T07:39:34.999451+00:00",
        "meta_object_name": "STARLINK-35937",
        "meta_object_id": "2025-265B",
        "meta_epoch": "2025-12-03T22:00:03.000096",
        "meta_mean_motion": 15.7538719,
        "meta_eccentricity": 0.00015404,
        "meta_inclination": 42.9995,
        "meta_ra_of_asc_node": 106.3045,
        "meta_arg_of_pericenter": 258.4972,
        "meta_mean_anomaly": 329.3181,
        "meta_ephemeris_type": 0,
        "meta_classification_type": "U",
        "meta_norad_cat_id": 66517,
        "meta_element_set_no": 999,
        "meta_rev_at_epoch": 357,
        "meta_bstar": -0.0061918482,
        "meta_mean_motion_dot": -0.0087202,
        "meta_mean_motion_ddot": 0,
        "tle_line1": "1 66517U 25265B   25337.91670139 -.00872020  00000+0 -61918-2 0  9998",
        "tle_line2": "2 66517  42.9995 106.3045 0001540 258.4972 329.3181 15.75387190  3579"
      },
      "geometry": {
        "type": "Point",
        "coordinates": [
          98.33021280616163,
          -5.133190803129435
        ]
      }
    },
    {
      "type": "Feature",
      "properties": {
        "norad_id": 66518,
        "name": "STARLINK-35962",
        "group": "last-30-days",
        "lat": -3.8265354423315228,
        "lon": 99.74098641785729,
        "alt_km": 345.7961955332494,
        "timestamp": "2025-12-04T07:39:34.999460+00:00",
        "meta_object_name": "STARLINK-35962",
        "meta_object_id": "2025-265C",
        "meta_epoch": "2025-12-03T22:00:03.000096",
        "meta_mean_motion": 15.75391864,
        "meta_eccentricity": 0.00017775,
        "meta_inclination": 42.9994,
        "meta_ra_of_asc_node": 106.2993,
        "meta_arg_of_pericenter": 267.991,
        "meta_mean_anomaly": 321.7471,
        "meta_ephemeris_type": 0,
        "meta_classification_type": "U",
        "meta_norad_cat_id": 66518,
        "meta_element_set_no": 999,
        "meta_rev_at_epoch": 357,
        "meta_bstar": -0.0062870583,
        "meta_mean_motion_dot": -0.00884371,
        "meta_mean_motion_ddot": 0,
        "tle_line1": "1 66518U 25265C   25337.91670139 -.00884371  00000+0 -62871-2 0  9990",
        "tle_line2": "2 66518  42.9994 106.2993 0001777 267.9910 321.7471 15.75391864  3570"
      },
      "geometry": {
        "type": "Point",
        "coordinates": [
          99.74098641785729,
          -3.8265354423315228
        ]
      }
    },
    {
      "type": "Feature",
      "properties": {
        "norad_id": 66519,
        "name": "STARLINK-35931",
        "group": "last-30-days",
        "lat": -2.521083547270082,
        "lon": 101.14388653139672,
        "alt_km": 345.7846888638569,
        "timestamp": "2025-12-04T07:39:34.999469+00:00",
        "meta_object_name": "STARLINK-35931",
        "meta_object_id": "2025-265D",
        "meta_epoch": "2025-12-03T22:00:03.000096",
        "meta_mean_motion": 15.75398161,
        "meta_eccentricity": 0.00017763,
        "meta_inclination": 42.9996,
        "meta_ra_of_asc_node": 106.2943,
        "meta_arg_of_pericenter": 263.9058,
        "meta_mean_anomaly": 327.7482,
        "meta_ephemeris_type": 0,
        "meta_classification_type": "U",
        "meta_norad_cat_id": 66519,
        "meta_element_set_no": 999,
        "meta_rev_at_epoch": 357,
        "meta_bstar": -0.0063613868,
        "meta_mean_motion_dot": -0.00894022,
        "meta_mean_motion_ddot": 0,
        "tle_line1": "1 66519U 25265D   25337.91670139 -.00894022  00000+0 -63614-2 0  9991",
        "tle_line2": "2 66519  42.9996 106.2943 0001776 263.9058 327.7482 15.75398161  3571"
      },
      "geometry": {
        "type": "Point",
        "coordinates": [
          101.14388653139672,
          -2.521083547270082
        ]
      }
    },
    {
      "type": "Feature",
      "properties": {
        "norad_id": 66520,
        "name": "STARLINK-35952",
        "group": "last-30-days",
        "lat": -1.2111598169498452,
        "lon": 102.54725347803371,
        "alt_km": 345.43258782286557,
        "timestamp": "2025-12-04T07:39:34.999480+00:00",
        "meta_object_name": "STARLINK-35952",
        "meta_object_id": "2025-265E",
        "meta_epoch": "2025-12-03T22:00:03.000096",
        "meta_mean_motion": 15.75410115,
        "meta_eccentricity": 0.0001704,
        "meta_inclination": 42.9994,
        "meta_ra_of_asc_node": 106.2895,
        "meta_arg_of_pericenter": 272.7719,
        "meta_mean_anomaly": 320.7919,
        "meta_ephemeris_type": 0,
        "meta_classification_type": "U",
        "meta_norad_cat_id": 66520,
        "meta_element_set_no": 999,
        "meta_rev_at_epoch": 357,
        "meta_bstar": -0.0063980728,
        "meta_mean_motion_dot": -0.0089907,
        "meta_mean_motion_ddot": 0,
        "tle_line1": "1 66520U 25265E   25337.91670139 -.00899070  00000+0 -63981-2 0  9998",
        "tle_line2": "2 66520  42.9994 106.2895 0001704 272.7719 320.7919 15.75410115  3572"
      },
      "geometry": {
        "type": "Point",
        "coordinates": [
          102.54725347803371,
          -1.2111598169498452
        ]
      }
    },
    {
      "type": "Feature",
      "properties": {
        "norad_id": 66521,
        "name": "STARLINK-35915",
        "group": "last-30-days",
        "lat": 0.08972023385075975,
        "lon": 103.93848404536577,
        "alt_km": 345.3759112335465,
        "timestamp": "2025-12-04T07:39:34.999489+00:00",
        "meta_object_name": "STARLINK-35915",
        "meta_object_id": "2025-265F",
        "meta_epoch": "2025-12-03T22:00:03.000096",
        "meta_mean_motion": 15.75386015,
        "meta_eccentricity": 0.00017488,
        "meta_inclination": 42.9995,
        "meta_ra_of_asc_node": 106.2843,
        "meta_arg_of_pericenter": 270.2689,
        "meta_mean_anomaly": 325.2228,
        "meta_ephemeris_type": 0,
        "meta_classification_type": "U",
        "meta_norad_cat_id": 66521,
        "meta_element_set_no": 999,
        "meta_rev_at_epoch": 357,
        "meta_bstar": -0.0062394427,
        "meta_mean_motion_dot": -0.00878105,
        "meta_mean_motion_ddot": 0,
        "tle_line1": "1 66521U 25265F   25337.91670139 -.00878105  00000+0 -62394-2 0  9992",
        "tle_line2": "2 66521  42.9995 106.2843 0001748 270.2689 325.2228 15.75386015  3578"
      },
      "geometry": {
        "type": "Point",
        "coordinates": [
          103.93848404536577,
          0.08972023385075975
        ]
      }
    },
    {
      "type": "Feature",
      "properties": {
        "norad_id": 66522,
        "name": "STARLINK-35946",
        "group": "last-30-days",
        "lat": 1.3972487143302421,
        "lon": 105.33745237522301,
        "alt_km": 345.2242436180295,
        "timestamp": "2025-12-04T07:39:34.999498+00:00",
        "meta_object_name": "STARLINK-35946",
        "meta_object_id": "2025-265G",
        "meta_epoch": "2025-12-03T22:00:03.000096",
        "meta_mean_motion": 15.7538769,
        "meta_eccentricity": 0.00017743,
        "meta_inclination": 42.9994,
        "meta_ra_of_asc_node": 106.2796,
        "meta_arg_of_pericenter": 271.1314,
        "meta_mean_anomaly": 326.2765,
        "meta_ephemeris_type": 0,
        "meta_classification_type": "U",
        "meta_norad_cat_id": 66522,
        "meta_element_set_no": 999,
        "meta_rev_at_epoch": 357,
        "meta_bstar": -0.0062505773,
        "meta_mean_motion_dot": -0.00879588,
        "meta_mean_motion_ddot": 0,
        "tle_line1": "1 66522U 25265G   25337.91670139 -.00879588  00000+0 -62506-2 0  9994",
        "tle_line2": "2 66522  42.9994 106.2796 0001774 271.1314 326.2765 15.75387690  3576"
      },
      "geometry": {
        "type": "Point",
        "coordinates": [
          105.33745237522301,
          1.3972487143302421
        ]
      }
    }
  ]
}